ONEWEB-0309             
1 49095U 21075W   23264.84640281 -.00000673  00000+0 -17667-2 0  9998
2 49095  87.9158 204.4610 0002559  48.6238 311.5113 13.17655731101978
ONEWEB-0310             
1 49096U 21075X   23264.84303411  .00000101  00000+0  24496-3 0  9993
2 49096  87.9075 189.3266 0002047  68.1019 292.0327 13.12445954104108
ONEWEB-0311             
1 49097U 21075Y   23264.85274082  .00000038  00000+0  65929-4 0  9992
2 49097  87.9162 204.4632 0001455  81.3038 278.8259 13.17649165102022
ONEWEB-0312             
1 49098U 21075Z   23264.86536460 -.00007926  00000+0 -20453-1 0  9990
2 49098  87.9244 204.4503 0002290  52.6109 307.5231 13.17690311102006
ONEWEB-0313             
1 49099U 21075AA  23264.92021612  .00000178  00000+0  42462-3 0  9992
2 49099  87.9235 204.4553 0001664  68.9521 291.1788 13.17648512102005
ONEWEB-0314             
1 49100U 21075AB  23264.83796903  .00000079  00000+0  16948-3 0  9997
2 49100  87.9158 204.4594 0001502  62.5259 297.6025 13.17651013101965
ONEWEB-0315             
1 49101U 21075AC  23264.81445712 -.00000136  00000+0 -41325-3 0  9998
2 49101  87.9069 189.3421 0001974  85.3528 274.7826 13.12441959104084
ONEWEB-0316             
1 49102U 21075AD  23264.78956491  .00000869  00000+0  21716-2 0  9998
2 49102  87.9230 174.2502 0002047  93.2279 266.9088 13.18684795105493
